SL-3 R/B                
1 13154U 82039B   25316.27760296  .00005998  00000+0  37067-3 0  9998
2 13154  81.1796 351.1244 0032206 352.2710   7.8014 15.09274964363921
SL-3 R/B                
1 13403U 82079B   25316.26846618  .00012264  00000+0  51404-3 0  9996
2 13403  81.1469 331.5710 0025203 199.5504 160.4764 15.23110528359819
SL-14 R/B               
1 13553U 82092B   25316.33283921  .00001417  00000+0  15704-3 0  9998
2 13553  82.5681 251.1462 0019754 335.0480 140.5935 14.86505259311499
SL-3 R/B                
1 13819U 83010B   25316.03132772  .00015859  00000+0  36495-3 0  9993
2 13819  81.1029 146.0714 0018296  95.6835 264.6495 15.42326429339784
SL-3 R/B                
1 14208U 83075B   25316.22778187  .00024467  00000+0  71062-3 0  9998
2 14208  97.6110 311.7072 0021232 291.6940  68.2042 15.35257298312110
COSMOS 1536             
1 14699U 84013A   25316.24045045  .00015330  00000+0  66785-3 0  9992
2 14699  82.5469 224.3948 0014762 344.1106  15.9665 15.21989917254742
SL-14 R/B               
1 14820U 84027B   25316.18377738  .00000706  00000+0  78180-4 0  9997
2 14820  82.5428 355.2122 0018130   7.7853 352.3641 14.85826186230186
SL-8 R/B                
1 15483U 85006B   25315.70758282  .00000445  00000+0  15650-3 0  9997
2 15483  74.0433 118.2269 0017543  60.4368 310.7760 14.37691503137071
SL-12 R/B(2)            
1 15772U 85042D   25316.28858705  .00000162  00000+0  94566-4 0  9993
2 15772  71.1085 335.7535 0037228 306.0936 131.2817 14.21937144 97708
SL-14 R/B               
1 15945U 85069B   25316.00213652  .00000842  00000+0  92771-4 0  9991
2 15945  82.5247 135.6013 0017824 218.8271 141.1667 14.86268037155354
SL-16 R/B               
1 16182U 85097B   25316.27369343 -.00000015  00000+0  16586-4 0  9997
2 16182  71.0046  27.7424 0005247  68.9023 348.5013 14.16576101 70609
SL-14 R/B               
1 16496U 86006B   25316.20959825  .00001430  00000+0  15048-3 0  9991
2 16496  82.5290  10.2761 0075478 302.7798  56.6161 14.86609970131750
