CCSDS_OMM_VERS = 2.0
CREATION_DATE  = 
ORIGINATOR     = 

OBJECT_NAME    = SL-3 R/B
OBJECT_ID      = 1982-039B
CENTER_NAME    = EARTH
REF_FRAME      = TEME
TIME_SYSTEM    = UTC
MEAN_ELEMENT_THEORY = SGP/SGP4

EPOCH          = 2025-11-12T06:39:44.895744
MEAN_MOTION    = 15.09274964
ECCENTRICITY   = .00322063
INCLINATION    = 81.1796
RA_OF_ASC_NODE = 351.1244
ARG_OF_PERICENTER = 352.2710
MEAN_ANOMALY   = 7.8014

EPHEMERIS_TYPE = 0
CLASSIFICATION_TYPE = U
NORAD_CAT_ID   = 13154
ELEMENT_SET_NO = 999
REV_AT_EPOCH   = 36392
BSTAR          = .37067379E-3
MEAN_MOTION_DOT = .5998E-4
MEAN_MOTION_DDOT = 0

CCSDS_OMM_VERS = 2.0
CREATION_DATE  = 
ORIGINATOR     = 

OBJECT_NAME    = SL-3 R/B
OBJECT_ID      = 1982-079B
CENTER_NAME    = EARTH
REF_FRAME      = TEME
TIME_SYSTEM    = UTC
MEAN_ELEMENT_THEORY = SGP/SGP4

EPOCH          = 2025-11-12T06:26:35.477952
MEAN_MOTION    = 15.23110528
ECCENTRICITY   = .00252033
INCLINATION    = 81.1469
RA_OF_ASC_NODE = 331.5710
ARG_OF_PERICENTER = 199.5504
MEAN_ANOMALY   = 160.4764

EPHEMERIS_TYPE = 0
CLASSIFICATION_TYPE = U
NORAD_CAT_ID   = 13403
ELEMENT_SET_NO = 999
REV_AT_EPOCH   = 35981
BSTAR          = .5140375E-3
MEAN_MOTION_DOT = .12264E-3
MEAN_MOTION_DDOT = 0

CCSDS_OMM_VERS = 2.0
CREATION_DATE  = 
ORIGINATOR     = 

OBJECT_NAME    = SL-14 R/B
OBJECT_ID      = 1982-092B
CENTER_NAME    = EARTH
REF_FRAME      = TEME
TIME_SYSTEM    = UTC
MEAN_ELEMENT_THEORY = SGP/SGP4

EPOCH          = 2025-11-12T07:59:17.307744
MEAN_MOTION    = 14.86505259
ECCENTRICITY   = .00197542
INCLINATION    = 82.5681
RA_OF_ASC_NODE = 251.1462
ARG_OF_PERICENTER = 335.0480
MEAN_ANOMALY   = 140.5935

EPHEMERIS_TYPE = 0
CLASSIFICATION_TYPE = U
NORAD_CAT_ID   = 13553
ELEMENT_SET_NO = 999
REV_AT_EPOCH   = 31149
BSTAR          = .15704477E-3
MEAN_MOTION_DOT = .1417E-4
MEAN_MOTION_DDOT = 0

CCSDS_OMM_VERS = 2.0
CREATION_DATE  = 
ORIGINATOR     = 

OBJECT_NAME    = SL-3 R/B
OBJECT_ID      = 1983-010B
CENTER_NAME    = EARTH
REF_FRAME      = TEME
TIME_SYSTEM    = UTC
MEAN_ELEMENT_THEORY = SGP/SGP4

EPOCH          = 2025-11-12T00:45:06.715008
MEAN_MOTION    = 15.42326429
ECCENTRICITY   = .00182961
INCLINATION    = 81.1029
RA_OF_ASC_NODE = 146.0714
ARG_OF_PERICENTER = 95.6835
MEAN_ANOMALY   = 264.6495

EPHEMERIS_TYPE = 0
CLASSIFICATION_TYPE = U
NORAD_CAT_ID   = 13819
ELEMENT_SET_NO = 999
REV_AT_EPOCH   = 33978
BSTAR          = .36494918E-3
MEAN_MOTION_DOT = .15859E-3
MEAN_MOTION_DDOT = 0

CCSDS_OMM_VERS = 2.0
CREATION_DATE  = 
ORIGINATOR     = 

OBJECT_NAME    = SL-3 R/B
OBJECT_ID      = 1983-075B
CENTER_NAME    = EARTH
REF_FRAME      = TEME
TIME_SYSTEM    = UTC
MEAN_ELEMENT_THEORY = SGP/SGP4

EPOCH          = 2025-11-12T05:28:00.353568
MEAN_MOTION    = 15.35257298
ECCENTRICITY   = .0021232
INCLINATION    = 97.6110
RA_OF_ASC_NODE = 311.7072
ARG_OF_PERICENTER = 291.6940
MEAN_ANOMALY   = 68.2042

EPHEMERIS_TYPE = 0
CLASSIFICATION_TYPE = U
NORAD_CAT_ID   = 14208
ELEMENT_SET_NO = 999
REV_AT_EPOCH   = 31211
BSTAR          = .7106162E-3
MEAN_MOTION_DOT = .24467E-3
MEAN_MOTION_DDOT = 0

CCSDS_OMM_VERS = 2.0
CREATION_DATE  = 
ORIGINATOR     = 

OBJECT_NAME    = COSMOS 1536
OBJECT_ID      = 1984-013A
CENTER_NAME    = EARTH
REF_FRAME      = TEME
TIME_SYSTEM    = UTC
MEAN_ELEMENT_THEORY = SGP/SGP4

EPOCH          = 2025-11-12T05:46:14.918880
MEAN_MOTION    = 15.21989917
ECCENTRICITY   = .00147621
INCLINATION    = 82.5469
RA_OF_ASC_NODE = 224.3948
ARG_OF_PERICENTER = 344.1106
MEAN_ANOMALY   = 15.9665

EPHEMERIS_TYPE = 0
CLASSIFICATION_TYPE = U
NORAD_CAT_ID   = 14699
ELEMENT_SET_NO = 999
REV_AT_EPOCH   = 25474
BSTAR          = .667854E-3
MEAN_MOTION_DOT = .1533E-3
MEAN_MOTION_DDOT = 0

CCSDS_OMM_VERS = 2.0
CREATION_DATE  = 
ORIGINATOR     = 

OBJECT_NAME    = SL-14 R/B
OBJECT_ID      = 1984-027B
CENTER_NAME    = EARTH
REF_FRAME      = TEME
TIME_SYSTEM    = UTC
MEAN_ELEMENT_THEORY = SGP/SGP4

EPOCH          = 2025-11-12T04:24:38.365632
MEAN_MOTION    = 14.85826186
ECCENTRICITY   = .00181306
INCLINATION    = 82.5428
RA_OF_ASC_NODE = 355.2122
ARG_OF_PERICENTER = 7.7853
MEAN_ANOMALY   = 352.3641

EPHEMERIS_TYPE = 0
CLASSIFICATION_TYPE = U
NORAD_CAT_ID   = 14820
ELEMENT_SET_NO = 999
REV_AT_EPOCH   = 23018
BSTAR          = .78179875E-4
MEAN_MOTION_DOT = .706E-5
MEAN_MOTION_DDOT = 0

CCSDS_OMM_VERS = 2.0
CREATION_DATE  = 
ORIGINATOR     = 

OBJECT_NAME    = SL-8 R/B
OBJECT_ID      = 1985-006B
CENTER_NAME    = EARTH
REF_FRAME      = TEME
TIME_SYSTEM    = UTC
MEAN_ELEMENT_THEORY = SGP/SGP4

EPOCH          = 2025-11-11T16:58:55.155648
MEAN_MOTION    = 14.37691503
ECCENTRICITY   = .0017543
INCLINATION    = 74.0433
RA_OF_ASC_NODE = 118.2269
ARG_OF_PERICENTER = 60.4368
MEAN_ANOMALY   = 310.7760

EPHEMERIS_TYPE = 0
CLASSIFICATION_TYPE = U
NORAD_CAT_ID   = 15483
ELEMENT_SET_NO = 999
REV_AT_EPOCH   = 13707
BSTAR          = .15649956E-3
MEAN_MOTION_DOT = .445E-5
MEAN_MOTION_DDOT = 0

CCSDS_OMM_VERS = 2.0
CREATION_DATE  = 
ORIGINATOR     = 

OBJECT_NAME    = SL-12 R/B(2)
OBJECT_ID      = 1985-042D
CENTER_NAME    = EARTH
REF_FRAME      = TEME
TIME_SYSTEM    = UTC
MEAN_ELEMENT_THEORY = SGP/SGP4

EPOCH          = 2025-11-12T06:55:33.921120
MEAN_MOTION    = 14.21937144
ECCENTRICITY   = .00372286
INCLINATION    = 71.1085
RA_OF_ASC_NODE = 335.7535
ARG_OF_PERICENTER = 306.0936
MEAN_ANOMALY   = 131.2817

EPHEMERIS_TYPE = 0
CLASSIFICATION_TYPE = U
NORAD_CAT_ID   = 15772
ELEMENT_SET_NO = 999
REV_AT_EPOCH   = 9770
BSTAR          = .94565961E-4
MEAN_MOTION_DOT = .162E-5
MEAN_MOTION_DDOT = 0

CCSDS_OMM_VERS = 2.0
CREATION_DATE  = 
ORIGINATOR     = 

OBJECT_NAME    = SL-14 R/B
OBJECT_ID      = 1985-069B
CENTER_NAME    = EARTH
REF_FRAME      = TEME
TIME_SYSTEM    = UTC
MEAN_ELEMENT_THEORY = SGP/SGP4

EPOCH          = 2025-11-12T00:03:04.595328
MEAN_MOTION    = 14.86268037
ECCENTRICITY   = .00178244
INCLINATION    = 82.5247
RA_OF_ASC_NODE = 135.6013
ARG_OF_PERICENTER = 218.8271
MEAN_ANOMALY   = 141.1667

EPHEMERIS_TYPE = 0
CLASSIFICATION_TYPE = U
NORAD_CAT_ID   = 15945
ELEMENT_SET_NO = 999
REV_AT_EPOCH   = 15535
BSTAR          = .92771292E-4
MEAN_MOTION_DOT = .842E-5
MEAN_MOTION_DDOT = 0

CCSDS_OMM_VERS = 2.0
CREATION_DATE  = 
ORIGINATOR     = 

OBJECT_NAME    = SL-16 R/B
OBJECT_ID      = 1985-097B
CENTER_NAME    = EARTH
REF_FRAME      = TEME
TIME_SYSTEM    = UTC
MEAN_ELEMENT_THEORY = SGP/SGP4

EPOCH          = 2025-11-12T06:34:07.112352
MEAN_MOTION    = 14.16576101
ECCENTRICITY   = .00052475
INCLINATION    = 71.0046
RA_OF_ASC_NODE = 27.7424
ARG_OF_PERICENTER = 68.9023
MEAN_ANOMALY   = 348.5013

EPHEMERIS_TYPE = 0
CLASSIFICATION_TYPE = U
NORAD_CAT_ID   = 16182
ELEMENT_SET_NO = 999
REV_AT_EPOCH   = 7060
BSTAR          = .16586089E-4
MEAN_MOTION_DOT = -.15E-6
MEAN_MOTION_DDOT = 0

CCSDS_OMM_VERS = 2.0
CREATION_DATE  = 
ORIGINATOR     = 

OBJECT_NAME    = SL-14 R/B
OBJECT_ID      = 1986-006B
CENTER_NAME    = EARTH
REF_FRAME      = TEME
TIME_SYSTEM    = UTC
MEAN_ELEMENT_THEORY = SGP/SGP4

EPOCH          = 2025-11-12T05:01:49.288800
MEAN_MOTION    = 14.86609970
ECCENTRICITY   = .00754782
INCLINATION    = 82.5290
RA_OF_ASC_NODE = 10.2761
ARG_OF_PERICENTER = 302.7798
MEAN_ANOMALY   = 56.6161

EPHEMERIS_TYPE = 0
CLASSIFICATION_TYPE = U
NORAD_CAT_ID   = 16496
ELEMENT_SET_NO = 999
REV_AT_EPOCH   = 13175
BSTAR          = .15048471E-3
MEAN_MOTION_DOT = .143E-4
MEAN_MOTION_DDOT = 0

